GLOBALSTAR M035         
1 25851U 99037A   25202.51534295 -.00000113  00000+0 -18824-2 0  9995
2 25851  51.9984 338.4118 0013854  40.2409  36.0119 11.04538813100057
GLOBALSTAR M032         
1 25852U 99037B   25202.27498318 -.00000087  00000+0 -65653-3 0  9997
2 25852  51.9930 161.7918 0011989 224.6645 135.3189 11.19062169138605
GLOBALSTAR M048         
1 25872U 99041A   25202.39731891 -.00000037  00000+0  90045-3 0  9990
2 25872  51.9349 254.7241 0013666 243.2282 129.5222 11.33858243128863
GLOBALSTAR M026         
1 25873U 99041B   25202.49930846 -.00000033  00000+0  11279-2 0  9990
2 25873  52.0016  96.0453 0002126 348.6774 200.9175 11.06845304152282
GLOBALSTAR M043         
1 25874U 99041C   25202.63643174 -.00000079  00000+0 -32220-3 0  9993
2 25874  51.9428   3.1706 0013424  14.0349  68.3598 11.25694393126752
GLOBALSTAR M028         
1 25875U 99041D   25202.60040689 -.00000092  00000+0  53752-4 0  9991
2 25875  51.9627  90.4505 0063351 145.5286 214.9708 12.50584568194482
